[{"OBJECT_NAME":"HIBARI","OBJECT_ID":"2021-102F","EPOCH":"2026-03-09T16:55:51.090816","MEAN_MOTION":15.29554512,"ECCENTRICITY":0.00120742,"INCLINATION":97.3381,"RA_OF_ASC_NODE":115.826,"ARG_OF_PERICENTER":186.5211,"MEAN_ANOMALY":173.5875,"EPHEMERIS_TYPE":0,"CLASSIFICATION_TYPE":"U","NORAD_CAT_ID":49400,"ELEMENT_SET_NO":999,"REV_AT_EPOCH":23897,"BSTAR":0.00042758039,"MEAN_MOTION_DOT":0.00012206,"MEAN_MOTION_DDOT":0},{"OBJECT_NAME":"STARLINK-36057","OBJECT_ID":"2025-283G","EPOCH":"2026-03-09T05:57:19.221696","MEAN_MOTION":15.30188592,"ECCENTRICITY":0.0001141,"INCLINATION":53.1603,"RA_OF_ASC_NODE":26.428,"ARG_OF_PERICENTER":79.9322,"MEAN_ANOMALY":280.1808,"EPHEMERIS_TYPE":0,"CLASSIFICATION_TYPE":"U","NORAD_CAT_ID":66884,"ELEMENT_SET_NO":999,"REV_AT_EPOCH":1577,"BSTAR":0.0011441646,"MEAN_MOTION_DOT":0.00033669,"MEAN_MOTION_DDOT":0}]
